start=new Date('2022-09-09T00:00:00.000Z').valueOf();
sats=[{"FILE":"3564431","RCS_SIZE":"LARGE","CLASSIFICATION_TYPE":"U","CENTER_NAME":"EARTH","RA_OF_ASC_NODE":"194.4306","INCLINATION":"53.0543","EPHEMERIS_TYPE":"0","ELEMENT_SET_NO":"999","BSTAR":"0.00019116000000","SEMIMAJOR_AXIS":"6925.380","ECCENTRICITY":"0.00016160","TIME_SYSTEM":"UTC","LAUNCH_DATE":"2020-06-13","OBJECT_TYPE":"PAYLOAD","SITE":"AFETR","OBJECT_NAME":"STARLINK-1521","MEAN_MOTION":"15.06389742","ARG_OF_PERICENTER":"80.8587","GP_ID":"212090894","MEAN_MOTION_DOT":"0.00002566","MEAN_ELEMENT_THEORY":"SGP4","EPOCH":"2022-09-08T13:03:00.520128","TLE_LINE1":"1 45768U 20038AQ  22251.54375602  .00002566  00000-0  19116-3 0  9997","PERIAPSIS":"546.126","REF_FRAME":"TEME","NORAD_CAT_ID":"45768","TLE_LINE2":"2 45768  53.0543 194.4306 0001616  80.8587 279.2585 15.06389742123839","PERIOD":"95.593","APOAPSIS":"548.364","OBJECT_ID":"2020-038AQ","MEAN_ANOMALY":"279.2585","COUNTRY_CODE":"US","REV_AT_EPOCH":"12383","MEAN_MOTION_DDOT":"0.0000000000000","DECAY_DATE":null},{"MEAN_ANOMALY":"288.7845","OBJECT_ID":"2020-038AR","PERIOD":"95.592","APOAPSIS":"548.277","NORAD_CAT_ID":"45769","TLE_LINE2":"2 45769  53.0539 214.0433 0001523  71.3310 288.7845 15.06397317123562","MEAN_MOTION_DDOT":"0.0000000000000","DECAY_DATE":null,"REV_AT_EPOCH":"12356","COUNTRY_CODE":"US","MEAN_ELEMENT_THEORY":"SGP4","REF_FRAME":"TEME","TLE_LINE1":"1 45769U 20038AR  22251.63405934  .00002238  00000-0  16913-3 0  9998","EPOCH":"2022-09-08T15:13:02.726976","PERIAPSIS":"546.167","LAUNCH_DATE":"2020-06-13","TIME_SYSTEM":"UTC","ECCENTRICITY":"0.00015230","MEAN_MOTION_DOT":"0.00002238","GP_ID":"212089652","SITE":"AFETR","OBJECT_TYPE":"PAYLOAD","ARG_OF_PERICENTER":"71.3310","MEAN_MOTION":"15.06397317","OBJECT_NAME":"STARLINK-1459","CLASSIFICATION_TYPE":"U","CENTER_NAME":"EARTH","RCS_SIZE":"LARGE","FILE":"3564431","SEMIMAJOR_AXIS":"6925.357","BSTAR":"0.00016913000000","EPHEMERIS_TYPE":"0","ELEMENT_SET_NO":"999","RA_OF_ASC_NODE":"214.0433","INCLINATION":"53.0539"},{"MEAN_MOTION_DDOT":"0.0000000000000","DECAY_DATE":null,"COUNTRY_CODE":"US","REV_AT_EPOCH":"12413","MEAN_ANOMALY":"290.6518","OBJECT_ID":"2020-038AS","TLE_LINE2":"2 45770  53.0551 173.4341 0001701  69.4653 290.6518 15.06400887124130","NORAD_CAT_ID":"45770","APOAPSIS":"548.389","PERIOD":"95.592","REF_FRAME":"TEME","PERIAPSIS":"546.033","TLE_LINE1":"1 45770U 20038AS  22251.76950648  .00007634  00000-0  53085-3 0  9997","EPOCH":"2022-09-08T18:28:05.359872","MEAN_ELEMENT_THEORY":"SGP4","MEAN_MOTION_DOT":"0.00007634","GP_ID":"212089902","OBJECT_TYPE":"PAYLOAD","SITE":"AFETR","OBJECT_NAME":"STARLINK-1462","MEAN_MOTION":"15.06400887","ARG_OF_PERICENTER":"69.4653","TIME_SYSTEM":"UTC","LAUNCH_DATE":"2020-06-13","ECCENTRICITY":"0.00017010","SEMIMAJOR_AXIS":"6925.346","INCLINATION":"53.0551","RA_OF_ASC_NODE":"173.4341","EPHEMERIS_TYPE":"0","ELEMENT_SET_NO":"999","BSTAR":"0.00053085000000","CENTER_NAME":"EARTH","CLASSIFICATION_TYPE":"U","FILE":"3564431","RCS_SIZE":"LARGE"},{"ECCENTRICITY":"0.00015560","LAUNCH_DATE":"2020-06-13","TIME_SYSTEM":"UTC","ARG_OF_PERICENTER":"82.1186","SITE":"AFETR","OBJECT_TYPE":"PAYLOAD","OBJECT_NAME":"STARLINK-1463","MEAN_MOTION":"15.06376859","MEAN_MOTION_DOT":"0.00000768","GP_ID":"212090652","RCS_SIZE":"LARGE","FILE":"3564431","CENTER_NAME":"EARTH","CLASSIFICATION_TYPE":"U","ELEMENT_SET_NO":"999","EPHEMERIS_TYPE":"0","BSTAR":"0.00007047100000","INCLINATION":"53.0532","RA_OF_ASC_NODE":"173.1680","SEMIMAJOR_AXIS":"6925.419","APOAPSIS":"548.362","PERIOD":"95.594","TLE_LINE2":"2 45771  53.0532 173.1680 0001556  82.1186 277.9979 15.06376859124145","NORAD_CAT_ID":"45771","MEAN_ANOMALY":"277.9979","OBJECT_ID":"2020-038AT","REV_AT_EPOCH":"12414","COUNTRY_CODE":"US","DECAY_DATE":null,"MEAN_MOTION_DDOT":"0.0000000000000","MEAN_ELEMENT_THEORY":"SGP4","TLE_LINE1":"1 45771U 20038AT  22251.82943747  .00000768  00000-0  70471-4 0  9997","EPOCH":"2022-09-08T19:54:23.397408","PERIAPSIS":"546.207","REF_FRAME":"TEME"},{"MEAN_ELEMENT_THEORY":"SGP4","REF_FRAME":"TEME","TLE_LINE1":"1 45772U 20038AU  22251.48662052  .00001338  00000-0  10875-3 0  9992","PERIAPSIS":"546.277","EPOCH":"2022-09-08T11:40:44.012928","MEAN_ANOMALY":"245.6889","OBJECT_ID":"2020-038AU","TLE_LINE2":"2 45772  53.0561 174.6927 0001397 114.4246 245.6889 15.06389863125217","NORAD_CAT_ID":"45772","APOAPSIS":"548.212","PERIOD":"95.593","DECAY_DATE":null,"MEAN_MOTION_DDOT":"0.0000000000000","COUNTRY_CODE":"US","REV_AT_EPOCH":"12521","CENTER_NAME":"EARTH","CLASSIFICATION_TYPE":"U","FILE":"3563923","RCS_SIZE":"LARGE","SEMIMAJOR_AXIS":"6925.380","INCLINATION":"53.0561","RA_OF_ASC_NODE":"174.6927","BSTAR":"0.00010875000000","EPHEMERIS_TYPE":"0","ELEMENT_SET_NO":"999","TIME_SYSTEM":"UTC","LAUNCH_DATE":"2020-06-13","ECCENTRICITY":"0.00013970","MEAN_MOTION_DOT":"0.00001338","GP_ID":"212058494","SITE":"AFETR","MEAN_MOTION":"15.06389863","OBJECT_TYPE":"PAYLOAD","OBJECT_NAME":"STARLINK-1470","ARG_OF_PERICENTER":"114.4246"},{"CLASSIFICATION_TYPE":"U","CENTER_NAME":"EARTH","FILE":"3563723","RCS_SIZE":"LARGE","SEMIMAJOR_AXIS":"6925.374","RA_OF_ASC_NODE":"174.7381","INCLINATION":"53.0529","BSTAR":"0.00022564000000","ELEMENT_SET_NO":"999","EPHEMERIS_TYPE":"0","TIME_SYSTEM":"UTC","LAUNCH_DATE":"2020-06-13","ECCENTRICITY":"0.00013950","GP_ID":"212047697","MEAN_MOTION_DOT":"0.00003080","SITE":"AFETR","OBJECT_TYPE":"PAYLOAD","MEAN_MOTION":"15.06391727","OBJECT_NAME":"STARLINK-1482","ARG_OF_PERICENTER":"74.2421","MEAN_ELEMENT_THEORY":"SGP4","REF_FRAME":"TEME","TLE_LINE1":"1 45773U 20038AV  22251.47925352  .00003080  00000-0  22564-3 0  9991","PERIAPSIS":"546.273","EPOCH":"2022-09-08T11:30:07.504128","MEAN_ANOMALY":"285.8721","OBJECT_ID":"2020-038AV","NORAD_CAT_ID":"45773","TLE_LINE2":"2 45773  53.0529 174.7381 0001395  74.2421 285.8721 15.06391727124103","PERIOD":"95.593","APOAPSIS":"548.205","DECAY_DATE":null,"MEAN_MOTION_DDOT":"0.0000000000000","COUNTRY_CODE":"US","REV_AT_EPOCH":"12410"},{"CENTER_NAME":"EARTH","CLASSIFICATION_TYPE":"U","RCS_SIZE":"LARGE","FILE":"3563927","SEMIMAJOR_AXIS":"6925.399","ELEMENT_SET_NO":"999","EPHEMERIS_TYPE":"0","BSTAR":"0.00026888000000","INCLINATION":"53.0543","RA_OF_ASC_NODE":"174.5755","LAUNCH_DATE":"2020-06-13","TIME_SYSTEM":"UTC","ECCENTRICITY":"0.00014420","MEAN_MOTION_DOT":"0.00003724","GP_ID":"212058038","SITE":"AFETR","OBJECT_TYPE":"PAYLOAD","MEAN_MOTION":"15.06383443","OBJECT_NAME":"STARLINK-1485","ARG_OF_PERICENTER":"78.7939","MEAN_ELEMENT_THEORY":"SGP4","REF_FRAME":"TEME","PERIAPSIS":"546.266","TLE_LINE1":"1 45774U 20038AW  22251.51612314  .00003724  00000-0  26888-3 0  9996","EPOCH":"2022-09-08T12:23:13.039296","MEAN_ANOMALY":"281.3212","OBJECT_ID":"2020-038AW","APOAPSIS":"548.263","PERIOD":"95.593","TLE_LINE2":"2 45774  53.0543 174.5755 0001442  78.7939 281.3212 15.06383443125225","NORAD_CAT_ID":"45774","MEAN_MOTION_DDOT":"0.0000000000000","DECAY_DATE":null,"REV_AT_EPOCH":"12522","COUNTRY_CODE":"US"},{"MEAN_ELEMENT_THEORY":"SGP4","REF_FRAME":"TEME","EPOCH":"2022-09-08T18:50:40.260480","TLE_LINE1":"1 45775U 20038AX  22251.78518820  .00006032  00000-0  42349-3 0  9998","PERIAPSIS":"546.122","MEAN_ANOMALY":"277.3290","OBJECT_ID":"2020-038AX","TLE_LINE2":"2 45775  53.0545 173.3678 0001578  82.7878 277.3290 15.06399564124159","NORAD_CAT_ID":"45775","APOAPSIS":"548.308","PERIOD":"95.592","MEAN_MOTION_DDOT":"0.0000000000000","DECAY_DATE":null,"COUNTRY_CODE":"US","REV_AT_EPOCH":"12415","CENTER_NAME":"EARTH","CLASSIFICATION_TYPE":"U","FILE":"3564431","RCS_SIZE":"LARGE","SEMIMAJOR_AXIS":"6925.350","INCLINATION":"53.0545","RA_OF_ASC_NODE":"173.3678","EPHEMERIS_TYPE":"0","BSTAR":"0.00042349000000","ELEMENT_SET_NO":"999","TIME_SYSTEM":"UTC","LAUNCH_DATE":"2020-06-13","ECCENTRICITY":"0.00015780","MEAN_MOTION_DOT":"0.00006032","GP_ID":"212090152","SITE":"AFETR","MEAN_MOTION":"15.06399564","OBJECT_TYPE":"PAYLOAD","OBJECT_NAME":"STARLINK-1488","ARG_OF_PERICENTER":"82.7878"},{"DECAY_DATE":null,"MEAN_MOTION_DDOT":"0.0000000000000","REV_AT_EPOCH":"12411","COUNTRY_CODE":"US","MEAN_ANOMALY":"293.2082","OBJECT_ID":"2020-038AY","APOAPSIS":"548.250","PERIOD":"95.592","TLE_LINE2":"2 45776  53.0546 174.5196 0001475  66.9062 293.2082 15.06395252124116","NORAD_CAT_ID":"45776","REF_FRAME":"TEME","PERIAPSIS":"546.207","TLE_LINE1":"1 45776U 20038AY  22251.52716644  .00003414  00000-0  24803-3 0  9991","EPOCH":"2022-09-08T12:39:07.180416","MEAN_ELEMENT_THEORY":"SGP4","MEAN_MOTION_DOT":"0.00003414","GP_ID":"212047447","SITE":"AFETR","OBJECT_NAME":"STARLINK-1489","OBJECT_TYPE":"PAYLOAD","MEAN_MOTION":"15.06395252","ARG_OF_PERICENTER":"66.9062","LAUNCH_DATE":"2020-06-13","TIME_SYSTEM":"UTC","ECCENTRICITY":"0.00014750","SEMIMAJOR_AXIS":"6925.363","EPHEMERIS_TYPE":"0","ELEMENT_SET_NO":"999","BSTAR":"0.00024803000000","INCLINATION":"53.0546","RA_OF_ASC_NODE":"174.5196","CENTER_NAME":"EARTH","CLASSIFICATION_TYPE":"U","RCS_SIZE":"LARGE","FILE":"3563723"},{"ECCENTRICITY":"0.00014840","TIME_SYSTEM":"UTC","LAUNCH_DATE":"2020-06-13","SITE":"AFETR","ARG_OF_PERICENTER":"69.6224","OBJECT_TYPE":"PAYLOAD","MEAN_MOTION":"15.06398152","OBJECT_NAME":"STARLINK-1490","GP_ID":"212048196","MEAN_MOTION_DOT":"0.00005085","FILE":"3563723","RCS_SIZE":"LARGE","CLASSIFICATION_TYPE":"U","CENTER_NAME":"EARTH","RA_OF_ASC_NODE":"174.5406","INCLINATION":"53.0529","EPHEMERIS_TYPE":"0","BSTAR":"0.00036002000000","ELEMENT_SET_NO":"999","SEMIMAJOR_AXIS":"6925.354","NORAD_CAT_ID":"45777","TLE_LINE2":"2 45777  53.0529 174.5406 0001484  69.6224 290.4924 15.06398152124118","PERIOD":"95.592","APOAPSIS":"548.247","MEAN_ANOMALY":"290.4924","OBJECT_ID":"2020-038AZ","COUNTRY_CODE":"US","REV_AT_EPOCH":"12411","MEAN_MOTION_DDOT":"0.0000000000000","DECAY_DATE":null,"MEAN_ELEMENT_THEORY":"SGP4","TLE_LINE1":"1 45777U 20038AZ  22251.52348507  .00005085  00000-0  36002-3 0  9991","EPOCH":"2022-09-08T12:33:49.110048","PERIAPSIS":"546.191","REF_FRAME":"TEME"}];
